[{"OBJECT_NAME":"ONEWEB-0720","OBJECT_ID":"2023-029AR","EPOCH":"2025-09-12T13:23:52.725696","MEAN_MOTION":13.1972618,"ECCENTRICITY":0.00013995,"INCLINATION":87.928,"RA_OF_ASC_NODE":0.1964,"ARG_OF_PERICENTER":97.1675,"MEAN_ANOMALY":262.9617,"EPHEMERIS_TYPE":0,"CLASSIFICATION_TYPE":"U","NORAD_CAT_ID":55835,"ELEMENT_SET_NO":999,"REV_AT_EPOCH":12222,"BSTAR":0.00022893608,"MEAN_MOTION_DOT":1.05e-6,"MEAN_MOTION_DDOT":0},{"OBJECT_NAME":"ONEWEB-0537","OBJECT_ID":"2023-043A","EPOCH":"2025-09-12T12:02:27.188448","MEAN_MOTION":13.16592731,"ECCENTRICITY":0.00020071,"INCLINATION":87.8994,"RA_OF_ASC_NODE":284.1083,"ARG_OF_PERICENTER":97.9817,"MEAN_ANOMALY":262.1542,"EPHEMERIS_TYPE":0,"CLASSIFICATION_TYPE":"U","NORAD_CAT_ID":56046,"ELEMENT_SET_NO":999,"REV_AT_EPOCH":12242,"BSTAR":-0.00014687828,"MEAN_MOTION_DOT":-4.3e-7,"MEAN_MOTION_DDOT":0},{"OBJECT_NAME":"ONEWEB-0538","OBJECT_ID":"2023-043B","EPOCH":"2025-09-12T11:53:20.642784","MEAN_MOTION":13.16594569,"ECCENTRICITY":0.00017787,"INCLINATION":87.8982,"RA_OF_ASC_NODE":284.122,"ARG_OF_PERICENTER":101.3933,"MEAN_ANOMALY":258.7398,"EPHEMERIS_TYPE":0,"CLASSIFICATION_TYPE":"U","NORAD_CAT_ID":56047,"ELEMENT_SET_NO":999,"REV_AT_EPOCH":12243,"BSTAR":-0.00015698748,"MEAN_MOTION_DOT":-4.7e-7,"MEAN_MOTION_DDOT":0},{"OBJECT_NAME":"ONEWEB-0546","OBJECT_ID":"2023-043C","EPOCH":"2025-09-12T11:35:06.423072","MEAN_MOTION":13.16594304,"ECCENTRICITY":0.00025288,"INCLINATION":87.8996,"RA_OF_ASC_NODE":284.1062,"ARG_OF_PERICENTER":102.1478,"MEAN_ANOMALY":257.9936,"EPHEMERIS_TYPE":0,"CLASSIFICATION_TYPE":"U","NORAD_CAT_ID":56048,"ELEMENT_SET_NO":999,"REV_AT_EPOCH":12242,"BSTAR":-0.00030336446,"MEAN_MOTION_DOT":-1.03e-6,"MEAN_MOTION_DDOT":0},{"OBJECT_NAME":"ONEWEB-0547","OBJECT_ID":"2023-043D","EPOCH":"2025-09-11T16:28:50.348640","MEAN_MOTION":13.21824744,"ECCENTRICITY":0.00017825,"INCLINATION":87.921,"RA_OF_ASC_NODE":299.5513,"ARG_OF_PERICENTER":96.8794,"MEAN_ANOMALY":263.2543,"EPHEMERIS_TYPE":0,"CLASSIFICATION_TYPE":"U","NORAD_CAT_ID":56049,"ELEMENT_SET_NO":999,"REV_AT_EPOCH":12143,"BSTAR":6.5410934e-5,"MEAN_MOTION_DOT":4.0e-7,"MEAN_MOTION_DDOT":0},{"OBJECT_NAME":"ONEWEB-0548","OBJECT_ID":"2023-043E","EPOCH":"2025-09-12T12:11:34.853856","MEAN_MOTION":13.16595849,"ECCENTRICITY":0.00021,"INCLINATION":87.8975,"RA_OF_ASC_NODE":284.1245,"ARG_OF_PERICENTER":79.849,"MEAN_ANOMALY":280.2878,"EPHEMERIS_TYPE":0,"CLASSIFICATION_TYPE":"U","NORAD_CAT_ID":56050,"ELEMENT_SET_NO":999,"REV_AT_EPOCH":12242,"BSTAR":2.103136e-6,"MEAN_MOTION_DOT":1.4e-7,"MEAN_MOTION_DDOT":0},{"OBJECT_NAME":"ONEWEB-0549","OBJECT_ID":"2023-043F","EPOCH":"2025-09-11T16:16:21.277920","MEAN_MOTION":13.21826856,"ECCENTRICITY":0.00017055,"INCLINATION":87.921,"RA_OF_ASC_NODE":299.5678,"ARG_OF_PERICENTER":100.9198,"MEAN_ANOMALY":259.2128,"EPHEMERIS_TYPE":0,"CLASSIFICATION_TYPE":"U","NORAD_CAT_ID":56051,"ELEMENT_SET_NO":999,"REV_AT_EPOCH":12143,"BSTAR":-4.8582362e-5,"MEAN_MOTION_DOT":-7.0e-8,"MEAN_MOTION_DDOT":0},{"OBJECT_NAME":"ONEWEB-0550","OBJECT_ID":"2023-043G","EPOCH":"2025-09-12T13:46:12.272160","MEAN_MOTION":13.21824496,"ECCENTRICITY":0.00020437,"INCLINATION":87.9209,"RA_OF_ASC_NODE":299.3833,"ARG_OF_PERICENTER":91.6101,"MEAN_ANOMALY":268.5267,"EPHEMERIS_TYPE":0,"CLASSIFICATION_TYPE":"U","NORAD_CAT_ID":56052,"ELEMENT_SET_NO":999,"REV_AT_EPOCH":12155,"BSTAR":-0.00010612908,"MEAN_MOTION_DOT":-3.1e-7,"MEAN_MOTION_DDOT":0},{"OBJECT_NAME":"ONEWEB-0551","OBJECT_ID":"2023-043H","EPOCH":"2025-09-12T11:16:41.228832","MEAN_MOTION":13.15550562,"ECCENTRICITY":0.00016402,"INCLINATION":87.9032,"RA_OF_ASC_NODE":314.6515,"ARG_OF_PERICENTER":98.8422,"MEAN_ANOMALY":261.2894,"EPHEMERIS_TYPE":0,"CLASSIFICATION_TYPE":"U","NORAD_CAT_ID":56053,"ELEMENT_SET_NO":999,"REV_AT_EPOCH":11988,"BSTAR":0.00030672228,"MEAN_MOTION_DOT":1.28e-6,"MEAN_MOTION_DDOT":0},{"OBJECT_NAME":"ONEWEB-0552","OBJECT_ID":"2023-043J","EPOCH":"2025-09-12T09:59:07.783584","MEAN_MOTION":13.2182606,"ECCENTRICITY":0.00016407,"INCLINATION":87.921,"RA_OF_ASC_NODE":299.4234,"ARG_OF_PERICENTER":91.9587,"MEAN_ANOMALY":268.1735,"EPHEMERIS_TYPE":0,"CLASSIFICATION_TYPE":"U","NORAD_CAT_ID":56054,"ELEMENT_SET_NO":999,"REV_AT_EPOCH":12153,"BSTAR":-0.00013407931,"MEAN_MOTION_DOT":-4.2e-7,"MEAN_MOTION_DDOT":0},{"OBJECT_NAME":"ONEWEB-0553","OBJECT_ID":"2023-043K","EPOCH":"2025-09-12T11:44:13.786080","MEAN_MOTION":13.16594363,"ECCENTRICITY":0.00023011,"INCLINATION":87.8985,"RA_OF_ASC_NODE":284.1218,"ARG_OF_PERICENTER":95.1409,"MEAN_ANOMALY":264.9984,"EPHEMERIS_TYPE":0,"CLASSIFICATION_TYPE":"U","NORAD_CAT_ID":56055,"ELEMENT_SET_NO":999,"REV_AT_EPOCH":12243,"BSTAR":-0.00023180649,"MEAN_MOTION_DOT":-7.6e-7,"MEAN_MOTION_DDOT":0},{"OBJECT_NAME":"ONEWEB-0554","OBJECT_ID":"2023-043L","EPOCH":"2025-09-12T13:15:25.475616","MEAN_MOTION":13.16593609,"ECCENTRICITY":0.00020322,"INCLINATION":87.8975,"RA_OF_ASC_NODE":284.1334,"ARG_OF_PERICENTER":86.2896,"MEAN_ANOMALY":273.8467,"EPHEMERIS_TYPE":0,"CLASSIFICATION_TYPE":"U","NORAD_CAT_ID":56056,"ELEMENT_SET_NO":999,"REV_AT_EPOCH":12242,"BSTAR":-0.00011501271,"MEAN_MOTION_DOT":-3.1e-7,"MEAN_MOTION_DDOT":0},{"OBJECT_NAME":"ONEWEB-0555","OBJECT_ID":"2023-043M","EPOCH":"2025-09-12T12:20:41.176608","MEAN_MOTION":13.16595571,"ECCENTRICITY":0.00025115,"INCLINATION":87.8983,"RA_OF_ASC_NODE":284.1111,"ARG_OF_PERICENTER":97.6412,"MEAN_ANOMALY":262.5004,"EPHEMERIS_TYPE":0,"CLASSIFICATION_TYPE":"U","NORAD_CAT_ID":56057,"ELEMENT_SET_NO":999,"REV_AT_EPOCH":12242,"BSTAR":-7.8765553e-5,"MEAN_MOTION_DOT":-1.7e-7,"MEAN_MOTION_DDOT":0},{"OBJECT_NAME":"ONEWEB-0557","OBJECT_ID":"2023-043N","EPOCH":"2025-09-12T12:41:13.250976","MEAN_MOTION":13.16593801,"ECCENTRICITY":0.00030892,"INCLINATION":87.8974,"RA_OF_ASC_NODE":284.1267,"ARG_OF_PERICENTER":79.2549,"MEAN_ANOMALY":280.8929,"EPHEMERIS_TYPE":0,"CLASSIFICATION_TYPE":"U","NORAD_CAT_ID":56058,"ELEMENT_SET_NO":999,"REV_AT_EPOCH":12242,"BSTAR":3.1452685e-5,"MEAN_MOTION_DOT":2.5e-7,"MEAN_MOTION_DDOT":0},{"OBJECT_NAME":"ONEWEB-0558","OBJECT_ID":"2023-043P","EPOCH":"2025-09-12T09:50:01.975776","MEAN_MOTION":13.21824118,"ECCENTRICITY":0.00014221,"INCLINATION":87.9204,"RA_OF_ASC_NODE":299.4201,"ARG_OF_PERICENTER":104.3296,"MEAN_ANOMALY":255.7996,"EPHEMERIS_TYPE":0,"CLASSIFICATION_TYPE":"U","NORAD_CAT_ID":56059,"ELEMENT_SET_NO":999,"REV_AT_EPOCH":12154,"BSTAR":-0.00036780108,"MEAN_MOTION_DOT":-1.39e-6,"MEAN_MOTION_DDOT":0},{"OBJECT_NAME":"ONEWEB-0559","OBJECT_ID":"2023-043Q","EPOCH":"2025-09-11T15:24:07.141248","MEAN_MOTION":13.21826698,"ECCENTRICITY":0.00015705,"INCLINATION":87.9212,"RA_OF_ASC_NODE":299.5657,"ARG_OF_PERICENTER":89.5761,"MEAN_ANOMALY":270.5553,"EPHEMERIS_TYPE":0,"CLASSIFICATION_TYPE":"U","NORAD_CAT_ID":56060,"ELEMENT_SET_NO":999,"REV_AT_EPOCH":12145,"BSTAR":-4.419669e-6,"MEAN_MOTION_DOT":1.1e-7,"MEAN_MOTION_DDOT":0}]
