ONEWEB-0720             
1 55835U 23029AR  25255.55824914  .00000105  00000+0  22894-3 0  9992
2 55835  87.9280   0.1964 0001399  97.1675 262.9617 13.19726180122229
ONEWEB-0537             
1 56046U 23043A   25255.50170357 -.00000043  00000+0 -14688-3 0  9998
2 56046  87.8994 284.1083 0002007  97.9817 262.1542 13.16592731122425
ONEWEB-0538             
1 56047U 23043B   25255.49537781 -.00000047  00000+0 -15699-3 0  9992
2 56047  87.8982 284.1220 0001778 101.3933 258.7398 13.16594569122431
ONEWEB-0546             
1 56048U 23043C   25255.48271323 -.00000103  00000+0 -30336-3 0  9997
2 56048  87.8996 284.1062 0002528 102.1478 257.9936 13.16594304122423
ONEWEB-0547             
1 56049U 23043D   25254.68669385  .00000040  00000+0  65411-4 0  9999
2 56049  87.9210 299.5513 0001782  96.8794 263.2543 13.21824744121430
ONEWEB-0548             
1 56050U 23043E   25255.50804229  .00000014  00000+0  21031-5 0  9993
2 56050  87.8975 284.1245 0002100  79.8490 280.2878 13.16595849122425
ONEWEB-0549             
1 56051U 23043F   25254.67802405 -.00000007  00000+0 -48582-4 0  9998
2 56051  87.9210 299.5678 0001705 100.9198 259.2128 13.21826856121435
ONEWEB-0550             
1 56052U 23043G   25255.57375315 -.00000031  00000+0 -10613-3 0  9994
2 56052  87.9209 299.3833 0002043  91.6101 268.5267 13.21824496121559
ONEWEB-0551             
1 56053U 23043H   25255.46992163  .00000128  00000+0  30672-3 0  9991
2 56053  87.9032 314.6515 0001640  98.8422 261.2894 13.15550562119881
ONEWEB-0552             
1 56054U 23043J   25255.41606231 -.00000042  00000+0 -13408-3 0  9990
2 56054  87.9210 299.4234 0001640  91.9587 268.1735 13.21826060121535
ONEWEB-0553             
1 56055U 23043K   25255.48904845 -.00000076  00000+0 -23181-3 0  9996
2 56055  87.8985 284.1218 0002301  95.1409 264.9984 13.16594363122433
ONEWEB-0554             
1 56056U 23043L   25255.55237819 -.00000031  00000+0 -11501-3 0  9999
2 56056  87.8975 284.1334 0002032  86.2896 273.8467 13.16593609122420
ONEWEB-0555             
1 56057U 23043M   25255.51436547 -.00000017  00000+0 -78766-4 0  9996
2 56057  87.8983 284.1111 0002511  97.6412 262.5004 13.16595571122427
ONEWEB-0557             
1 56058U 23043N   25255.52862559  .00000025  00000+0  31453-4 0  9993
2 56058  87.8974 284.1267 0003089  79.2549 280.8929 13.16593801122421
ONEWEB-0558             
1 56059U 23043P   25255.40974509 -.00000139  00000+0 -36780-3 0  9995
2 56059  87.9204 299.4201 0001422 104.3296 255.7996 13.21824118121545
ONEWEB-0559             
1 56060U 23043Q   25254.64174932  .00000011  00000+0 -44197-5 0  9995
2 56060  87.9212 299.5657 0001570  89.5761 270.5553 13.21826698121456
